#aV2015 11 18  0  0  0.00000000     288 DD+AD WGS84 FIT  NGA
## 1871 259200.00000000   300.00000000 57344 0.0000000000000
+   30     1  2  3  5  6  7  8  9 11 12 13 14 15 16 17 18 19
+         20 21 22 23 24 25 26 27 28 29 30 31 32  0  0  0  0
+          0  0  0  0  0  0  0  0  0  0  0  0  0  0  0  0  0
+          0  0  0  0  0  0  0  0  0  0  0  0  0  0  0  0  0
+          0  0  0  0  0  0  0  0  0  0  0  0  0  0  0  0  0
++         2  2  2  2  2  2  2  2  2  2  2  2  2  2  2  2  2
++         2  2  2  2  2  2  2  2  2  2  2  2  2  0  0  0  0
++         0  0  0  0  0  0  0  0  0  0  0  0  0  0  0  0  0
++         0  0  0  0  0  0  0  0  0  0  0  0  0  0  0  0  0
++         0  0  0  0  0  0  0  0  0  0  0  0  0  0  0  0  0
%c cc cc ccc ccc cccc cccc cccc cccc ccccc ccccc ccccc ccccc
%c cc cc ccc ccc cccc cccc cccc cccc ccccc ccccc ccccc ccccc
%f  0.0000000  0.000000000  0.00000000000  0.000000000000000
%f  0.0000000  0.000000000  0.00000000000  0.000000000000000
%i    0    0    0    0      0      0      0      0         0
%i    0    0    0    0      0      0      0      0         0
/*      NGA, ST. LOUIS,MO.                                  
/*   EPHEMERIS COMPUTED FROM 2 DAYS OF DATA                 
/*   EPOCHA v2.4 SMOOTHER                                   
/*   G1762 IERS2010 SATAF SATAPC                            
*  2015 11 18 23 50  0.00000000
P  1 -16211.978340  -1419.644480  20953.874429      4.757341                    
V  1  -9123.383251 -25133.995018  -8530.102382      0.008296                    
P  2  14170.793454  21899.207673  -5706.891840    596.115093                    
V  2    340.188188   8237.940609  29930.175531      0.009380                    
P  3 -20062.104067   7763.229053  15592.280294     12.284764                    
V  3  10700.294410 -16770.586556  22099.898099     -0.037181                    
P  5  10764.496806  11401.346711 -21492.190485   -173.378075                    
V  5 -16960.386543  21270.322399   2990.600350      0.037837                    
P  6   5960.630323  25280.737178   5573.209879     97.508788                    
V  6  -5104.481023  -5576.642437  30734.507915      0.066834                    
P  7  -9120.388781  14736.616492 -19882.727598    479.969992                    
V  7 -10101.231593 -23587.025684 -13144.016974     -0.010586                    
P  8 -25839.525103  -5496.156956  -2657.741392    -13.009084                    
V  8   3790.299334  -2287.958051 -31536.337091     -0.014435                    
P  9 -18140.525309   9519.955463 -16921.345642     12.629850                    
V  9 -21012.393575  -4789.697067  19833.822718      0.061960                    
P 11 -20777.871878  -4515.431316  15406.105504   -616.944918                    
V 11 -11481.984328 -17612.820740 -19868.594903     -0.021504                    
P 12  19311.156887  -4788.108043  17378.347597    346.517129                    
V 12 -13666.760849  17664.880116  20138.146343      0.031067                    
P 13  20876.015064  12754.577355 -10351.647303   -165.270959                    
V 13 -13093.684438  -1171.476957 -28309.516470     -0.027790                    
P 14   2049.743872 -15129.663787  21989.736037     20.821311                    
V 14  26650.563414   5916.828515   1459.561610     -0.024136                    
P 15  26547.023714   3153.247029   -993.662484   -282.844375                    
V 15  -1431.509796   3295.067911 -30858.821221     -0.019638                    
P 16  -9039.216914 -11639.667818 -22150.960410    -65.267585                    
V 16  18974.783752 -20427.359469   3363.059020      0.036062                    
P 17  -1778.161944  14981.250325  22176.263721   -194.360000                    
V 17 -26870.355540  -5155.396403   1140.587205     -0.010113                    
P 18  15444.199437 -21418.558375    603.091011    454.284995                    
V 18   3468.035036   2365.127631 -31105.873521      0.036670                    
P 19 -18142.400700   8011.065641  17672.987437   -522.895288                    
V 19 -21730.337124  -6584.987651 -18662.514125     -0.003753                    
P 20  19438.940059  -5445.937584 -17454.267617    372.015313                    
V 20 -10410.099062  19439.456418 -17750.812579      0.028709                    
P 21   6111.003500 -18371.245647 -17330.427705   -494.314534                    
V 21  11459.093319  20814.470969 -17630.878770     -0.024002                    
P 22   5548.656734 -22921.044299  12279.187327    411.824124                    
V 22  11900.530870 -10311.714157 -25289.296772      0.034510                    
P 23 -25926.541990    929.570999  -6508.846611   -145.179448                    
V 23  -7910.101972  -3948.524178  29729.154059     -0.020550                    
P 24  17147.803394   4266.326787  19843.764635     -8.153982                    
V 24   8741.556041  23723.540490 -12461.054652     -0.004959                    
P 25  19322.553883 -16500.261753   7321.682717    -69.584555                    
V 25  -4071.964857   8835.823486  30415.871176     -0.057952                    
P 26   -752.255617 -19493.233807 -18013.008097   -128.304024                    
V 26  15351.463061 -17051.329283  17824.169600     -0.157197                    
P 27 -20112.371684 -11771.889330 -12885.980198     37.063388                    
V 27  16372.668964    334.628517 -25782.604883      0.032128                    
P 28 -10255.755356  22071.268711  11174.376160    482.389580                    
V 28 -10071.567758   8704.622122 -28106.266331      0.026764                    
P 29  20618.194354  -6484.454880 -15398.140636    644.977525                    
V 29  18839.208427   5535.867419  22905.397507      0.015180                    
P 30  -2135.632638  23147.985400 -12772.738745     58.896335                    
V 30  -7322.210346 -14739.537224 -25564.244800      0.055812                    
P 31  -5890.343866 -25330.340318   4497.139136    294.727804                    
V 31   4398.329943   4365.889217  31573.919643     -0.014895                    
P 32 -15736.324118  -4904.845740  20655.718316     21.250958                    
V 32  17204.692433 -20249.697872   8805.663080      0.118987                    
EOF
